[{"CCSDS_OMM_VERS":"3.0","COMMENT":"GENERATED VIA SPACE-TRACK.ORG API","CREATION_DATE":"2023-03-10T03:15:38","ORIGINATOR":"18 SPCS","OBJECT_NAME":"COSMOS 2251 DEB","OBJECT_ID":"1993-036AWC","CENTER_NAME":"EARTH","REF_FRAME":"TEME","TIME_SYSTEM":"UTC","MEAN_ELEMENT_THEORY":"SGP4","EPOCH":"2023-03-09T03:07:42.945024","MEAN_MOTION":"14.75347390","ECCENTRICITY":"0.00104240","INCLINATION":"74.0218","RA_OF_ASC_NODE":"19.6125","ARG_OF_PERICENTER":"2.8247","MEAN_ANOMALY":"8.7409","EPHEMERIS_TYPE":"0","CLASSIFICATION_TYPE":"U","NORAD_CAT_ID":"35986","ELEMENT_SET_NO":"999","REV_AT_EPOCH":"53688","BSTAR":"0.01321500000000","MEAN_MOTION_DOT":"0.00090899","MEAN_MOTION_DDOT":"0.0000000000000","SEMIMAJOR_AXIS":"7022.186","PERIOD":"97.604","APOAPSIS":"651.371","PERIAPSIS":"636.731","OBJECT_TYPE":"DEBRIS","RCS_SIZE":"SMALL","COUNTRY_CODE":"CIS","LAUNCH_DATE":"1993-06-16","SITE":"PKMTR","DECAY_DATE":"2023-10-13","FILE":"3855951","GP_ID":"227759854","TLE_LINE0":"0 COSMOS 2251 DEB","TLE_LINE1":"1 35986U 93036AWC 23068.13035816  .00090899  00000-0  13215-1 0  9996","TLE_LINE2":"2 35986  74.0218  19.6125 0010424   2.8247   8.7409 14.75347390536884"},{"CCSDS_OMM_VERS":"3.0","COMMENT":"GENERATED VIA SPACE-TRACK.ORG API","CREATION_DATE":"2026-03-25T04:32:27","ORIGINATOR":"18 SPCS","OBJECT_NAME":"COSMOS 2251 DEB","OBJECT_ID":"1993-036AWD","CENTER_NAME":"EARTH","REF_FRAME":"TEME","TIME_SYSTEM":"UTC","MEAN_ELEMENT_THEORY":"SGP4","EPOCH":"2026-03-24T11:49:37.060320","MEAN_MOTION":"14.43843577","ECCENTRICITY":"0.00507243","INCLINATION":"73.9967","RA_OF_ASC_NODE":"137.1236","ARG_OF_PERICENTER":"240.6261","MEAN_ANOMALY":"118.9825","EPHEMERIS_TYPE":"0","CLASSIFICATION_TYPE":"U","NORAD_CAT_ID":"35987","ELEMENT_SET_NO":"999","REV_AT_EPOCH":"62533","BSTAR":"0.00073367090000","MEAN_MOTION_DOT":"0.00002512","MEAN_MOTION_DDOT":"0.0000000000000","SEMIMAJOR_AXIS":"7123.964","PERIOD":"99.734","APOAPSIS":"781.965","PERIAPSIS":"709.694","OBJECT_TYPE":"DEBRIS","RCS_SIZE":"SMALL","COUNTRY_CODE":"CIS","LAUNCH_DATE":"1993-06-16","SITE":"PKMTR","DECAY_DATE":null,"FILE":"5096755","GP_ID":"316979232","TLE_LINE0":"0 COSMOS 2251 DEB","TLE_LINE1":"1 35987U 93036AWD 26083.49279005  .00002512  00000-0  73367-3 0  9997","TLE_LINE2":"2 35987  73.9967 137.1236 0050724 240.6261 118.9825 14.43843577625336"},{"CCSDS_OMM_VERS":"3.0","COMMENT":"GENERATED VIA SPACE-TRACK.ORG API","CREATION_DATE":"2022-12-06T02:31:27","ORIGINATOR":"18 SPCS","OBJECT_NAME":"COSMOS 2251 DEB","OBJECT_ID":"1993-036AWE","CENTER_NAME":"EARTH","REF_FRAME":"TEME","TIME_SYSTEM":"UTC","MEAN_ELEMENT_THEORY":"SGP4","EPOCH":"2014-06-01T04:41:49.887456","MEAN_MOTION":"14.37211887","ECCENTRICITY":"0.00361120","INCLINATION":"74.0195","RA_OF_ASC_NODE":"96.2543","ARG_OF_PERICENTER":"81.2634","MEAN_ANOMALY":"279.2607","EPHEMERIS_TYPE":"0","CLASSIFICATION_TYPE":"U","NORAD_CAT_ID":"35988","ELEMENT_SET_NO":"999","REV_AT_EPOCH":"26767","BSTAR":"0.00304490000000","MEAN_MOTION_DOT":"0.00009119","MEAN_MOTION_DDOT":"0.0000000000000","SEMIMAJOR_AXIS":"7145.862","PERIOD":"100.194","APOAPSIS":"793.532","PERIAPSIS":"741.922","OBJECT_TYPE":"DEBRIS","RCS_SIZE":"SMALL","COUNTRY_CODE":"CIS","LAUNCH_DATE":"1993-06-16","SITE":"PKMTR","DECAY_DATE":"2023-04-27","FILE":"3682465","GP_ID":"219618201","TLE_LINE0":"0 COSMOS 2251 DEB","TLE_LINE1":"1 35988U 93036AWE 14152.19571629  .00009119  00000-0  30449-2 0  9999","TLE_LINE2":"2 35988  74.0195  96.2543 0036112  81.2634 279.2607 14.37211887267670"},{"CCSDS_OMM_VERS":"3.0","COMMENT":"GENERATED VIA SPACE-TRACK.ORG API","CREATION_DATE":"2026-03-25T17:29:05","ORIGINATOR":"18 SPCS","OBJECT_NAME":"COSMOS 2251 DEB","OBJECT_ID":"1993-036AWF","CENTER_NAME":"EARTH","REF_FRAME":"TEME","TIME_SYSTEM":"UTC","MEAN_ELEMENT_THEORY":"SGP4","EPOCH":"2026-03-25T06:43:18.502464","MEAN_MOTION":"14.37233081","ECCENTRICITY":"0.00217226","INCLINATION":"74.0354","RA_OF_ASC_NODE":"95.2508","ARG_OF_PERICENTER":"159.3167","MEAN_ANOMALY":"200.8871","EPHEMERIS_TYPE":"0","CLASSIFICATION_TYPE":"U","NORAD_CAT_ID":"35989","ELEMENT_SET_NO":"999","REV_AT_EPOCH":"88652","BSTAR":"0.00014184432000","MEAN_MOTION_DOT":"0.00000397","MEAN_MOTION_DDOT":"0.0000000000000","SEMIMAJOR_AXIS":"7145.792","PERIOD":"100.193","APOAPSIS":"783.180","PERIAPSIS":"752.134","OBJECT_TYPE":"DEBRIS","RCS_SIZE":"SMALL","COUNTRY_CODE":"CIS","LAUNCH_DATE":"1993-06-16","SITE":"PKMTR","DECAY_DATE":null,"FILE":"5096884","GP_ID":"317011926","TLE_LINE0":"0 COSMOS 2251 DEB","TLE_LINE1":"1 35989U 93036AWF 26084.28007526  .00000397  00000-0  14184-3 0  9995","TLE_LINE2":"2 35989  74.0354  95.2508 0021723 159.3167 200.8871 14.37233081886522"},{"CCSDS_OMM_VERS":"3.0","COMMENT":"GENERATED VIA SPACE-TRACK.ORG API","CREATION_DATE":"2012-02-16T14:52:53","ORIGINATOR":"18 SPCS","OBJECT_NAME":"COSMOS 2251 DEB","OBJECT_ID":"1993-036AWG","CENTER_NAME":"EARTH","REF_FRAME":"TEME","TIME_SYSTEM":"UTC","MEAN_ELEMENT_THEORY":"SGP4","EPOCH":"2012-01-18T17:51:59.257439","MEAN_MOTION":"15.46721117","ECCENTRICITY":"0.00389250","INCLINATION":"73.9741","RA_OF_ASC_NODE":"45.3028","ARG_OF_PERICENTER":"22.0900","MEAN_ANOMALY":"338.6371","EPHEMERIS_TYPE":"0","CLASSIFICATION_TYPE":"U","NORAD_CAT_ID":"35990","ELEMENT_SET_NO":"999","REV_AT_EPOCH":"14352","BSTAR":"0.00874680000000","MEAN_MOTION_DOT":"0.00477295","MEAN_MOTION_DDOT":"0.0000000000000","SEMIMAJOR_AXIS":"6804.466","PERIOD":"93.100","APOAPSIS":"452.818","PERIAPSIS":"399.845","OBJECT_TYPE":"DEBRIS","RCS_SIZE":"SMALL","COUNTRY_CODE":"CIS","LAUNCH_DATE":"1993-06-16","SITE":"PKMTR","DECAY_DATE":"2012-02-16","FILE":"1240765","GP_ID":"87322467","TLE_LINE0":"0 COSMOS 2251 DEB","TLE_LINE1":"1 35990U 93036AWG 12018.74443585  .00477295  00000-0  87468-2 0  9998","TLE_LINE2":"2 35990 073.9741 045.3028 0038925 022.0900 338.6371 15.46721117143522"},{"CCSDS_OMM_VERS":"3.0","COMMENT":"GENERATED VIA SPACE-TRACK.ORG API","CREATION_DATE":"2022-04-01T18:37:21","ORIGINATOR":"18 SPCS","OBJECT_NAME":"COSMOS 2251 DEB","OBJECT_ID":"1993-036AWH","CENTER_NAME":"EARTH","REF_FRAME":"TEME","TIME_SYSTEM":"UTC","MEAN_ELEMENT_THEORY":"SGP4","EPOCH":"2022-04-01T10:18:50.946048","MEAN_MOTION":"15.58695726","ECCENTRICITY":"0.00036490","INCLINATION":"73.8808","RA_OF_ASC_NODE":"349.3289","ARG_OF_PERICENTER":"280.4862","MEAN_ANOMALY":"79.5943","EPHEMERIS_TYPE":"0","CLASSIFICATION_TYPE":"U","NORAD_CAT_ID":"35991","ELEMENT_SET_NO":"999","REV_AT_EPOCH":"69019","BSTAR":"0.01222700000000","MEAN_MOTION_DOT":"0.01033604","MEAN_MOTION_DDOT":"0.0000000000000","SEMIMAJOR_AXIS":"6769.568","PERIOD":"92.385","APOAPSIS":"393.903","PERIAPSIS":"388.963","OBJECT_TYPE":"DEBRIS","RCS_SIZE":"SMALL","COUNTRY_CODE":"CIS","LAUNCH_DATE":"1993-06-16","SITE":"PKMTR","DECAY_DATE":"2022-04-11","FILE":"3383353","GP_ID":"200222043","TLE_LINE0":"0 COSMOS 2251 DEB","TLE_LINE1":"1 35991U 93036AWH 22091.42975632  .01033604  00000-0  12227-1 0  9992","TLE_LINE2":"2 35991  73.8808 349.3289 0003649 280.4862  79.5943 15.58695726690199"},{"CCSDS_OMM_VERS":"3.0","COMMENT":"GENERATED VIA SPACE-TRACK.ORG API","CREATION_DATE":"2025-04-09T17:16:24","ORIGINATOR":"18 SPCS","OBJECT_NAME":"COSMOS 2251 DEB","OBJECT_ID":"1993-036AWJ","CENTER_NAME":"EARTH","REF_FRAME":"TEME","TIME_SYSTEM":"UTC","MEAN_ELEMENT_THEORY":"SGP4","EPOCH":"2015-05-31T01:31:19.850880","MEAN_MOTION":"14.66171244","ECCENTRICITY":"0.00906330","INCLINATION":"73.9533","RA_OF_ASC_NODE":"292.9072","ARG_OF_PERICENTER":"355.1963","MEAN_ANOMALY":"4.8325","EPHEMERIS_TYPE":"0","CLASSIFICATION_TYPE":"U","NORAD_CAT_ID":"35992","ELEMENT_SET_NO":"999","REV_AT_EPOCH":"30781","BSTAR":"0.00020536000000","MEAN_MOTION_DOT":"0.00001165","MEAN_MOTION_DDOT":"0.0000000000000","SEMIMAJOR_AXIS":"7051.455","PERIOD":"98.215","APOAPSIS":"737.229","PERIAPSIS":"609.410","OBJECT_TYPE":"DEBRIS","RCS_SIZE":"SMALL","COUNTRY_CODE":"CIS","LAUNCH_DATE":"1993-06-16","SITE":"PKMTR","DECAY_DATE":null,"FILE":"4696215","GP_ID":"285200272","TLE_LINE0":"0 COSMOS 2251 DEB","TLE_LINE1":"1 35992U 93036AWJ 15151.06342420  .00001165  00000-0  20536-3 0  9995","TLE_LINE2":"2 35992  73.9533 292.9072 0090633 355.1963   4.8325 14.66171244307811"},{"CCSDS_OMM_VERS":"3.0","COMMENT":"GENERATED VIA SPACE-TRACK.ORG API","CREATION_DATE":"2026-03-20T19:57:07","ORIGINATOR":"18 SPCS","OBJECT_NAME":"COSMOS 2251 DEB","OBJECT_ID":"1993-036AWK","CENTER_NAME":"EARTH","REF_FRAME":"TEME","TIME_SYSTEM":"UTC","MEAN_ELEMENT_THEORY":"SGP4","EPOCH":"2026-03-20T10:31:33.153888","MEAN_MOTION":"14.66153868","ECCENTRICITY":"0.00317389","INCLINATION":"74.0138","RA_OF_ASC_NODE":"144.4048","ARG_OF_PERICENTER":"303.8709","MEAN_ANOMALY":"55.9441","EPHEMERIS_TYPE":"0","CLASSIFICATION_TYPE":"U","NORAD_CAT_ID":"35993","ELEMENT_SET_NO":"999","REV_AT_EPOCH":"61874","BSTAR":"0.00042289834000","MEAN_MOTION_DOT":"0.00002311","MEAN_MOTION_DDOT":"0.0000000000000","SEMIMAJOR_AXIS":"7051.510","PERIOD":"98.216","APOAPSIS":"695.756","PERIAPSIS":"650.994","OBJECT_TYPE":"DEBRIS","RCS_SIZE":"SMALL","COUNTRY_CODE":"CIS","LAUNCH_DATE":"1993-06-16","SITE":"PKMTR","DECAY_DATE":null,"FILE":"5094010","GP_ID":"316596287","TLE_LINE0":"0 COSMOS 2251 DEB","TLE_LINE1":"1 35993U 93036AWK 26079.43857817  .00002311  00000-0  42290-3 0  9994","TLE_LINE2":"2 35993  74.0138 144.4048 0031739 303.8709  55.9441 14.66153868618744"}]